SILVERSAT               
1 66909U 98067XV  26034.96317678  .00118150  00000+0  13238-2 0  9996
2 66909  51.6261 236.1970 0002908 193.0582 167.0336 15.61798006  9905
1998-067XW              
1 66910U 98067XW  26034.59036105  .00090171  00000+0  10667-2 0  9995
2 66910  51.6249 238.2042 0001115 183.9676 176.1309 15.60516015  9848
1998-067XX              
1 66911U 98067XX  26033.97768564  .00107333  00000+0  11667-2 0  9998
2 66911  51.6238 240.8615 0002356 210.9723 149.1132 15.62627778  9748
1998-067XY              
1 66912U 98067XY  26034.96482242  .00071942  00000+0  94008-3 0  9992
2 66912  51.6270 236.9592 0001825 145.1291 214.9821 15.57987640  9886
